KUIPER-00152            
1 65772U 25217L   26001.33335648 -.01282374  00000+0 -77199-1 0  9990
2 65772  51.8881 330.9179 0002625 108.4086 212.2063 15.13663017  5569
KUIPER-00153            
1 65773U 25217M   26001.13860404  .00026119  00000+0  15244-2 0  9996
2 65773  51.8781 341.9731 0013537  89.6971 270.5556 15.11695049 14878
KUIPER-00155            
1 65774U 25217N   26001.33335648  .00093889  00000+0  29716-2 0  9993
2 65774  51.8681 330.0380 0008074  92.1387 256.3637 15.31943808  4565
KUIPER-00156            
1 65775U 25217P   26001.33335648  .00092267  00000+0  33420-2 0  9990
2 65775  51.8756 329.3045 0002638 104.5348 238.9381 15.27598559  5896
KUIPER-00158            
1 65776U 25217Q   26001.15070428  .00007186  00000+0  97025-3 0  9991
2 65776  51.8989 344.2512 0001072  48.6011 311.5043 14.79947782 14846
KUIPER-00163            
1 65777U 25217R   26001.33335648  .00033024  00000+0  43458-2 0  9990
2 65777  51.8980 345.9476 0000722 112.6468 155.6615 14.79873097  4831
KUIPER-00165            
1 65778U 25217S   26001.33335648  .00050087  00000+0  44731-2 0  9994
2 65778  51.8949 334.3011 0006641 107.2791 223.7783 14.95420970  5020
KUIPER-00166            
1 65779U 25217T   26001.33335648 -.00425232  00000+0 -12973-1 0  9997
2 65779  51.8714 329.2340 0005310  72.6096 318.3234 15.35116210  5772
